start=new Date('2021-12-04T00:00:00.000Z').valueOf();
sats=[{"BSTAR":"-0.00000429560000","FILE":"3231910","RCS_SIZE":"LARGE","PERIAPSIS":"546.308","LAUNCH_DATE":"2020-01-29","MEAN_MOTION_DOT":"-0.00000345","APOAPSIS":"548.179","CLASSIFICATION_TYPE":"U","MEAN_MOTION":"15.06390341","ECCENTRICITY":"0.00013510","SITE":"AFETR","NORAD_CAT_ID":"45052","MEAN_ANOMALY":"287.6424","OBJECT_ID":"2020-006J","CENTER_NAME":"EARTH","ELEMENT_SET_NO":"999","TLE_LINE1":"1 45052U 20006J   21337.70705624 -.00000345  00000-0 -42956-5 0  9996","DECAY_DATE":null,"REV_AT_EPOCH":"10178","ARG_OF_PERICENTER":"72.4713","RA_OF_ASC_NODE":"76.1929","EPOCH":"2021-12-03T16:58:09.659136","OBJECT_TYPE":"PAYLOAD","INCLINATION":"53.0551","SEMIMAJOR_AXIS":"6925.378","REF_FRAME":"TEME","MEAN_MOTION_DDOT":"0.0000000000000","PERIOD":"95.593","TIME_SYSTEM":"UTC","MEAN_ELEMENT_THEORY":"SGP4","GP_ID":"191036243","TLE_LINE2":"2 45052  53.0551  76.1929 0001351  72.4713 287.6424 15.06390341101787","COUNTRY_CODE":"US","OBJECT_NAME":"STARLINK-1148","EPHEMERIS_TYPE":"0"},{"INCLINATION":"53.0016","OBJECT_TYPE":"PAYLOAD","SEMIMAJOR_AXIS":"6921.121","MEAN_MOTION_DDOT":"0.0000000000000","REF_FRAME":"TEME","TIME_SYSTEM":"UTC","PERIOD":"95.505","MEAN_ELEMENT_THEORY":"SGP4","TLE_LINE2":"2 45053  53.0016  73.7474 0001086  95.6787 264.4326 15.07780326101809","GP_ID":"191035994","OBJECT_NAME":"STARLINK-1155","EPHEMERIS_TYPE":"0","COUNTRY_CODE":"US","BSTAR":"0.00038813000000","FILE":"3231910","CLASSIFICATION_TYPE":"U","APOAPSIS":"543.738","RCS_SIZE":"LARGE","PERIAPSIS":"542.235","LAUNCH_DATE":"2020-01-29","MEAN_MOTION_DOT":"0.00005722","MEAN_MOTION":"15.07780326","ECCENTRICITY":"0.00010860","OBJECT_ID":"2020-006K","SITE":"AFETR","MEAN_ANOMALY":"264.4326","NORAD_CAT_ID":"45053","ELEMENT_SET_NO":"999","CENTER_NAME":"EARTH","DECAY_DATE":null,"REV_AT_EPOCH":"10180","TLE_LINE1":"1 45053U 20006K   21337.76787786  .00005722  00000-0  38813-3 0  9999","ARG_OF_PERICENTER":"95.6787","EPOCH":"2021-12-03T18:25:44.647104","RA_OF_ASC_NODE":"73.7474"},{"SEMIMAJOR_AXIS":"6925.368","INCLINATION":"53.0568","OBJECT_TYPE":"PAYLOAD","REF_FRAME":"TEME","MEAN_MOTION_DDOT":"0.0000000000000","MEAN_ELEMENT_THEORY":"SGP4","TIME_SYSTEM":"UTC","PERIOD":"95.593","COUNTRY_CODE":"US","EPHEMERIS_TYPE":"0","OBJECT_NAME":"STARLINK-1156","GP_ID":"191009289","TLE_LINE2":"2 45054  53.0568  76.8038 0001359  79.6434 280.4709 15.06393772101768","PERIAPSIS":"546.291","LAUNCH_DATE":"2020-01-29","MEAN_MOTION_DOT":"0.00000175","RCS_SIZE":"LARGE","APOAPSIS":"548.174","CLASSIFICATION_TYPE":"U","BSTAR":"0.00003064100000","FILE":"3231740","ECCENTRICITY":"0.00013590","MEAN_MOTION":"15.06393772","CENTER_NAME":"EARTH","ELEMENT_SET_NO":"999","MEAN_ANOMALY":"280.4709","NORAD_CAT_ID":"45054","SITE":"AFETR","OBJECT_ID":"2020-006L","RA_OF_ASC_NODE":"76.8038","EPOCH":"2021-12-03T13:41:46.266432","ARG_OF_PERICENTER":"79.6434","TLE_LINE1":"1 45054U 20006L   21337.57067438  .00000175  00000-0  30641-4 0  9993","REV_AT_EPOCH":"10176","DECAY_DATE":null},{"EPHEMERIS_TYPE":"0","OBJECT_NAME":"STARLINK-1159","COUNTRY_CODE":"US","TLE_LINE2":"2 45057  53.0551  76.4280 0001391  73.0117 287.1024 15.06385549101789","GP_ID":"191036995","MEAN_ELEMENT_THEORY":"SGP4","PERIOD":"95.593","TIME_SYSTEM":"UTC","MEAN_MOTION_DDOT":"0.0000000000000","REF_FRAME":"TEME","SEMIMAJOR_AXIS":"6925.393","OBJECT_TYPE":"PAYLOAD","INCLINATION":"53.0551","RA_OF_ASC_NODE":"76.4280","EPOCH":"2021-12-03T15:38:33.043776","ARG_OF_PERICENTER":"73.0117","REV_AT_EPOCH":"10178","DECAY_DATE":null,"TLE_LINE1":"1 45057U 20006P   21337.65177134  .00000460  00000-0  49815-4 0  9990","ELEMENT_SET_NO":"999","CENTER_NAME":"EARTH","OBJECT_ID":"2020-006P","NORAD_CAT_ID":"45057","MEAN_ANOMALY":"287.1024","SITE":"AFETR","ECCENTRICITY":"0.00013910","MEAN_MOTION":"15.06385549","CLASSIFICATION_TYPE":"U","APOAPSIS":"548.221","LAUNCH_DATE":"2020-01-29","PERIAPSIS":"546.295","MEAN_MOTION_DOT":"0.00000460","RCS_SIZE":"LARGE","BSTAR":"0.00004981500000","FILE":"3231910"},{"OBJECT_TYPE":"PAYLOAD","INCLINATION":"53.0558","SEMIMAJOR_AXIS":"6925.391","REF_FRAME":"TEME","MEAN_MOTION_DDOT":"0.0000000000000","PERIOD":"95.593","TIME_SYSTEM":"UTC","MEAN_ELEMENT_THEORY":"SGP4","GP_ID":"191035744","TLE_LINE2":"2 45058  53.0558  76.4780 0001366  75.7151 284.3990 15.06386288101783","COUNTRY_CODE":"US","EPHEMERIS_TYPE":"0","OBJECT_NAME":"STARLINK-1162","BSTAR":"0.00006730300000","FILE":"3231910","LAUNCH_DATE":"2020-01-29","PERIAPSIS":"546.310","MEAN_MOTION_DOT":"0.00000721","RCS_SIZE":"LARGE","APOAPSIS":"548.202","CLASSIFICATION_TYPE":"U","MEAN_MOTION":"15.06386288","ECCENTRICITY":"0.00013660","MEAN_ANOMALY":"284.3990","NORAD_CAT_ID":"45058","SITE":"AFETR","OBJECT_ID":"2020-006Q","CENTER_NAME":"EARTH","ELEMENT_SET_NO":"999","TLE_LINE1":"1 45058U 20006Q   21337.64440003  .00000721  00000-0  67303-4 0  9990","REV_AT_EPOCH":"10178","DECAY_DATE":null,"RA_OF_ASC_NODE":"76.4780","EPOCH":"2021-12-03T15:27:56.162592","ARG_OF_PERICENTER":"75.7151"},{"RA_OF_ASC_NODE":"76.9646","EPOCH":"2021-12-03T12:48:41.544288","ARG_OF_PERICENTER":"63.4077","REV_AT_EPOCH":"10176","DECAY_DATE":null,"TLE_LINE1":"1 45059U 20006R   21337.53381417  .00000227  00000-0  34119-4 0  9992","ELEMENT_SET_NO":"999","CENTER_NAME":"EARTH","OBJECT_ID":"2020-006R","MEAN_ANOMALY":"296.7059","NORAD_CAT_ID":"45059","SITE":"AFETR","ECCENTRICITY":"0.00014430","MEAN_MOTION":"15.06400848","CLASSIFICATION_TYPE":"U","APOAPSIS":"548.210","LAUNCH_DATE":"2020-01-29","PERIAPSIS":"546.212","MEAN_MOTION_DOT":"0.00000227","RCS_SIZE":"LARGE","BSTAR":"0.00003411900000","FILE":"3231740","EPHEMERIS_TYPE":"0","OBJECT_NAME":"STARLINK-1165","COUNTRY_CODE":"US","TLE_LINE2":"2 45059  53.0552  76.9646 0001443  63.4077 296.7059 15.06400848101761","GP_ID":"191008541","MEAN_ELEMENT_THEORY":"SGP4","PERIOD":"95.592","TIME_SYSTEM":"UTC","MEAN_MOTION_DDOT":"0.0000000000000","REF_FRAME":"TEME","SEMIMAJOR_AXIS":"6925.346","INCLINATION":"53.0552","OBJECT_TYPE":"PAYLOAD"},{"MEAN_MOTION":"15.06390559","ECCENTRICITY":"0.00012880","FILE":"3231740","BSTAR":"0.00005689400000","RCS_SIZE":"LARGE","PERIAPSIS":"546.351","LAUNCH_DATE":"2020-01-29","MEAN_MOTION_DOT":"0.00000566","APOAPSIS":"548.134","CLASSIFICATION_TYPE":"U","TLE_LINE1":"1 45060U 20006S   21337.53013394  .00000566  00000-0  56894-4 0  9990","DECAY_DATE":null,"REV_AT_EPOCH":"10176","ARG_OF_PERICENTER":"77.3874","EPOCH":"2021-12-03T12:43:23.572416","RA_OF_ASC_NODE":"76.9874","SITE":"AFETR","MEAN_ANOMALY":"282.7259","NORAD_CAT_ID":"45060","OBJECT_ID":"2020-006S","CENTER_NAME":"EARTH","ELEMENT_SET_NO":"999","REF_FRAME":"TEME","MEAN_MOTION_DDOT":"0.0000000000000","OBJECT_TYPE":"PAYLOAD","INCLINATION":"53.0548","SEMIMAJOR_AXIS":"6925.377","GP_ID":"191008790","TLE_LINE2":"2 45060  53.0548  76.9874 0001288  77.3874 282.7259 15.06390559101761","COUNTRY_CODE":"US","OBJECT_NAME":"STARLINK-1166","EPHEMERIS_TYPE":"0","TIME_SYSTEM":"UTC","PERIOD":"95.593","MEAN_ELEMENT_THEORY":"SGP4"},{"TLE_LINE2":"2 45061  53.0554  75.7646 0001453  75.4824 284.6326 15.06388553101803","GP_ID":"191037495","OBJECT_NAME":"STARLINK-1169","EPHEMERIS_TYPE":"0","COUNTRY_CODE":"US","TIME_SYSTEM":"UTC","PERIOD":"95.593","MEAN_ELEMENT_THEORY":"SGP4","MEAN_MOTION_DDOT":"0.0000000000000","REF_FRAME":"TEME","INCLINATION":"53.0554","OBJECT_TYPE":"PAYLOAD","SEMIMAJOR_AXIS":"6925.384","DECAY_DATE":null,"REV_AT_EPOCH":"10180","TLE_LINE1":"1 45061U 20006T   21337.80289701  .00000772  00000-0  70710-4 0  9990","ARG_OF_PERICENTER":"75.4824","EPOCH":"2021-12-03T19:16:10.301664","RA_OF_ASC_NODE":"75.7646","OBJECT_ID":"2020-006T","SITE":"AFETR","NORAD_CAT_ID":"45061","MEAN_ANOMALY":"284.6326","ELEMENT_SET_NO":"999","CENTER_NAME":"EARTH","MEAN_MOTION":"15.06388553","ECCENTRICITY":"0.00014530","BSTAR":"0.00007071000000","FILE":"3231910","APOAPSIS":"548.255","CLASSIFICATION_TYPE":"U","RCS_SIZE":"LARGE","LAUNCH_DATE":"2020-01-29","PERIAPSIS":"546.242","MEAN_MOTION_DOT":"0.00000772"},{"TLE_LINE2":"2 45062  53.0551  77.0082 0001421  78.6214 281.4934 15.06391163101769","GP_ID":"191009792","EPHEMERIS_TYPE":"0","OBJECT_NAME":"STARLINK-1171","COUNTRY_CODE":"US","TIME_SYSTEM":"UTC","PERIOD":"95.593","MEAN_ELEMENT_THEORY":"SGP4","MEAN_MOTION_DDOT":"0.0000000000000","REF_FRAME":"TEME","OBJECT_TYPE":"PAYLOAD","INCLINATION":"53.0551","SEMIMAJOR_AXIS":"6925.376","REV_AT_EPOCH":"10176","DECAY_DATE":null,"TLE_LINE1":"1 45062U 20006U   21337.52275987 -.00001066  00000-0 -52715-4 0  9995","RA_OF_ASC_NODE":"77.0082","EPOCH":"2021-12-03T12:32:46.452768","ARG_OF_PERICENTER":"78.6214","OBJECT_ID":"2020-006U","MEAN_ANOMALY":"281.4934","NORAD_CAT_ID":"45062","SITE":"AFETR","ELEMENT_SET_NO":"999","CENTER_NAME":"EARTH","MEAN_MOTION":"15.06391163","ECCENTRICITY":"0.00014210","BSTAR":"-0.00005271500000","FILE":"3231740","CLASSIFICATION_TYPE":"U","APOAPSIS":"548.225","MEAN_MOTION_DOT":"-0.00001066","LAUNCH_DATE":"2020-01-29","PERIAPSIS":"546.257","RCS_SIZE":"LARGE"},{"EPHEMERIS_TYPE":"0","OBJECT_NAME":"STARLINK-1133","COUNTRY_CODE":"US","TLE_LINE2":"2 45064  53.0552  56.6498 0001394  74.6720 285.4423 15.06389508102053","GP_ID":"191035995","MEAN_ELEMENT_THEORY":"SGP4","PERIOD":"95.593","TIME_SYSTEM":"UTC","MEAN_MOTION_DDOT":"0.0000000000000","REF_FRAME":"TEME","SEMIMAJOR_AXIS":"6925.381","OBJECT_TYPE":"PAYLOAD","INCLINATION":"53.0552","EPOCH":"2021-12-03T14:26:53.680416","RA_OF_ASC_NODE":"56.6498","ARG_OF_PERICENTER":"74.6720","REV_AT_EPOCH":"10205","DECAY_DATE":null,"TLE_LINE1":"1 45064U 20006W   21337.60201019 -.00000620  00000-0 -22741-4 0  9992","ELEMENT_SET_NO":"999","CENTER_NAME":"EARTH","OBJECT_ID":"2020-006W","MEAN_ANOMALY":"285.4423","NORAD_CAT_ID":"45064","SITE":"AFETR","ECCENTRICITY":"0.00013940","MEAN_MOTION":"15.06389508","CLASSIFICATION_TYPE":"U","APOAPSIS":"548.211","PERIAPSIS":"546.280","LAUNCH_DATE":"2020-01-29","MEAN_MOTION_DOT":"-0.00000620","RCS_SIZE":"LARGE","FILE":"3231910","BSTAR":"-0.00002274100000"}];
